{
    "links": {
        "self": "http://www.neowsapp.com/rest/v1/neo/3439805?api_key=iIulBulltgU6a56xZRHN4H3l9WmuAYTsLGpBGhQ2"
    },
    "id": "3439805",
    "neo_reference_id": "3439805",
    "name": "(2008 WB14)",
    "designation": "2008 WB14",
    "nasa_jpl_url": "http://ssd.jpl.nasa.gov/sbdb.cgi?sstr=3439805",
    "absolute_magnitude_h": 25.5,
    "estimated_diameter": {
        "kilometers": {
            "estimated_diameter_min": 0.0211132445,
            "estimated_diameter_max": 0.0472106499
        },
        "meters": {
            "estimated_diameter_min": 21.113244479,
            "estimated_diameter_max": 47.2106498806
        },
        "miles": {
            "estimated_diameter_min": 0.0131191578,
            "estimated_diameter_max": 0.0293353287
        },
        "feet": {
            "estimated_diameter_min": 69.2691770164,
            "estimated_diameter_max": 154.8905885541
        }
    },
    "is_potentially_hazardous_asteroid": false,
    "close_approach_data": [
        {
            "close_approach_date": "2008-11-18",
            "close_approach_date_full": "2008-Nov-18 23:29",
            "epoch_date_close_approach": 1227050940000,
            "relative_velocity": {
                "kilometers_per_second": "8.5820510486",
                "kilometers_per_hour": "30895.3837750255",
                "miles_per_hour": "19197.189990654"
            },
            "miss_distance": {
                "astronomical": "0.0479513834",
                "lunar": "18.6530881426",
                "kilometers": "7173424.820193358",
                "miles": "4457359.4927620204"
            },
            "orbiting_body": "Earth"
        }
    ],
    "orbital_data": {
        "orbit_id": "9",
        "orbit_determination_date": "2017-04-06 09:02:09",
        "first_observation_date": "2008-11-20",
        "last_observation_date": "2008-11-27",
        "data_arc_in_days": 7,
        "observations_used": 32,
        "orbit_uncertainty": "8",
        "minimum_orbit_intersection": ".0453003",
        "jupiter_tisserand_invariant": "3.229",
        "epoch_osculation": "2454792.5",
        "eccentricity": ".579308613924251",
        "semi_major_axis": "2.451636911875614",
        "inclination": "8.459150090133335",
        "ascending_node_longitude": "238.3935263690942",
        "orbital_period": "1402.111831595385",
        "perihelion_distance": "1.031382530611421",
        "perihelion_argument": "170.8418053756144",
        "aphelion_distance": "3.871891293139808",
        "perihelion_time": "2454783.630395297185",
        "mean_anomaly": "2.277320268655173",
        "mean_motion": ".2567555539349354",
        "equinox": "J2000",
        "orbit_class": {
            "orbit_class_type": "AMO",
            "orbit_class_description": "Near-Earth asteroid orbits similar to that of 1221 Amor",
            "orbit_class_range": "1.017 AU < q (perihelion) < 1.3 AU"
        }
    },
    "is_sentry_object": false
}